NORAD_CAT_ID,OBJECT_NAME,OBJECT_TYPE,EPOCH,MEAN_MOTION,ECCENTRICITY,INCLINATION,RA_OF_ASC_NODE,ARG_OF_PERICENTER,MEAN_ANOMALY,BSTAR,MEAN_MOTION_DOT,MEAN_MOTION_DDOT,TLE_LINE0,TLE_LINE1,TLE_LINE2,SEMIMAJOR_AXIS,PERIOD,APOGEE,PERIGEE,DECAYED
53935.0,STARLINK-5000,PAYLOAD,2023-01-06 09:56:33,15.73171881,0.0005511,53.2121,101.0076,308.5562,51.4964,-0.00013823,-0.00019975,0.0,0 STARLINK-5000,1 53935U 22119BB  23006.41427374 -.00019975  00000-0 -13823-3 0  9996,2 53935  53.2121 101.0076 0005511 308.5562  51.4964 15.73171881 16713,6727.975,91.535,353.548,346.1330000000001,0.0
53935.0,STARLINK-5000,PAYLOAD,2023-01-06 11:28:02,15.73168737,0.0005807,53.2119,100.6936,310.0441,50.0069,-0.00013982,-0.00020197,0.0,0 STARLINK-5000,1 53935U 22119BB  23006.47780383 -.00020197  00000-0 -13982-3 0  9998,2 53935  53.2119 100.6936 0005807 310.0441  50.0069 15.73168737 17158,6727.984,91.535,353.756,345.94199999999995,0.0
53935.0,STARLINK-5000,PAYLOAD,2023-01-07 10:20:15,15.73179154,0.0006096,53.2122,95.9799,314.6859,45.3664,-6.6697e-06,-1.564e-05,0.0,0 STARLINK-5000,1 53935U 22119BB  23007.43073189 -.00001564  00000-0 -66697-5 0  9994,2 53935  53.2122  95.9799 0006096 314.6859  45.3664 15.73179154 16870,6727.955,91.534,353.921,345.718,0.0
53935.0,STARLINK-5000,PAYLOAD,2023-01-08 12:15:24,15.73217771,0.0006068,53.2124,90.6352,310.6251,49.4241,7.9724e-05,0.00010595,0.0,0 STARLINK-5000,1 53935U 22119BB  23008.51070285  .00010595  00000-0  79724-4 0  9994,2 53935  53.2124  90.6352 0006068 310.6251  49.4241 15.73217771 17044,6727.845,91.532,353.792,345.6269999999999,0.0
53935.0,STARLINK-5000,PAYLOAD,2023-01-09 06:00:00,15.73225554,0.0006466,53.2116,86.9756,305.9363,283.6256,-0.00016678,-0.00024025,0.0,0 STARLINK-5000,1 53935U 22119BB  23009.25001157 -.00024025  00000-0 -16678-3 0  9991,2 53935  53.2116  86.9756 0006466 305.9363 283.6256 15.73225554 17163,6727.821999999999,91.532,354.038,345.337,0.0
53935.0,STARLINK-5000,PAYLOAD,2023-01-09 14:00:01,15.73194867,0.0006661,53.2113,85.3279,307.7837,10.7333,-7.5063e-05,-0.00011162,0.0,0 STARLINK-5000,1 53935U 22119BB  23009.58334491 -.00011162  00000-0 -75063-4 0  9999,2 53935  53.2113  85.3279 0006661 307.7837  10.7333 15.73194867  1302,6727.91,91.533,354.256,345.293,0.0
53935.0,STARLINK-5000,PAYLOAD,2023-01-10 00:00:00,15.73148142,0.0006665,53.2108,83.2638,304.6468,215.0288,0.0001888,0.00025925,0.0,0 STARLINK-5000,1 53935U 22119BB  23010.00001157  .00025925  00000-0  18880-3 0  9991,2 53935  53.2108  83.2638 0006665 304.6468 215.0288 15.73148142  1306,6728.0430000000015,91.536,354.392,345.4240000000001,0.0
53935.0,STARLINK-5000,PAYLOAD,2023-01-10 11:31:18,15.73202753,0.0006594999999999,53.2118,80.8886,311.0821,48.9628,7.485599999999998e-06,4.23e-06,0.0,0 STARLINK-5000,1 53935U 22119BB  23010.48007061  .00000423  00000-0  74856-5 0  9996,2 53935  53.2118  80.8886 0006595 311.0821  48.9628 15.73202753 17354,6727.887,91.533,354.189,345.315,0.0
53935.0,STARLINK-5000,PAYLOAD,2023-01-10 14:34:15,15.73212743,0.0006669,53.2115,80.2587,310.7413,49.3028,3.7057e-05,4.584e-05,0.0,0 STARLINK-5000,1 53935U 22119BB  23010.60712328  .00004584  00000-0  37057-4 0  9992,2 53935  53.2115  80.2587 0006669 310.7413  49.3028 15.73212743 17807,6727.859,91.532,354.211,345.237,0.0
53935.0,STARLINK-5000,PAYLOAD,2023-01-11 10:23:29,15.73201992,0.0007081,53.2115,76.1723,314.6561,45.3881,1.2734e-06,-4.51e-06,0.0,0 STARLINK-5000,1 53935U 22119BB  23011.43298586 -.00000451  00000-0  12734-5 0  9995,2 53935  53.2115  76.1723 0007081 314.6561  45.3881 15.73201992 17503,6727.889,91.533,354.519,344.99,0.0
53935.0,STARLINK-5000,PAYLOAD,2023-01-11 13:26:27,15.73208522,0.0006905,53.2115,75.5432,315.7424,44.3043,7.9047e-06,4.81e-06,0.0,0 STARLINK-5000,1 53935U 22119BB  23011.56003563  .00000481  00000-0  79047-5 0  9990,2 53935  53.2115  75.5432 0006905 315.7424  44.3043 15.73208522 17951,6727.871,91.533,354.381,345.09,0.0
53935.0,STARLINK-5000,PAYLOAD,2023-01-11 21:03:50,15.73221057,0.0006915,53.2116,73.971,307.8059,52.2335,4.658399999999999e-05,5.928e-05,0.0,0 STARLINK-5000,1 53935U 22119BB  23011.87767331  .00005928  00000-0  46584-4 0  9994,2 53935  53.2116  73.9710 0006915 307.8059  52.2335 15.73221057 18007,6727.835,91.532,354.352,345.048,0.0
53935.0,STARLINK-5000,PAYLOAD,2023-01-12 12:18:38,15.73195777,0.0006691,53.2102,70.8259,309.3464,50.6963,-7.1434e-05,-0.00010654,0.0,0 STARLINK-5000,1 53935U 22119BB  23012.51295107 -.00010654  00000-0 -71434-4 0  9999,2 53935  53.2102  70.8259 0006691 309.3464  50.6963 15.73195777 17674,6727.906999999998,91.533,354.274,345.271,0.0
53935.0,STARLINK-5000,PAYLOAD,2023-01-13 11:10:52,15.73162884,0.000544,53.211000000000006,66.1099,305.3201,54.731,-8.766399999999999e-05,-0.00012903,0.0,0 STARLINK-5000,1 53935U 22119BB  23013.46588889 -.00012903  00000-0 -87664-4 0  9997,2 53935  53.2110  66.1099 0005440 305.3201  54.7310 15.73162884 17820,6728.001,91.535,353.526,346.206,0.0
53935.0,STARLINK-5000,PAYLOAD,2023-01-13 12:42:21,15.73168876,0.0005638,53.2113,65.7969,310.2596,49.793,-5.8537e-05,-8.831e-05,0.0,0 STARLINK-5000,1 53935U 22119BB  23013.52941671 -.00008831  00000-0 -58537-4 0  9998,2 53935  53.2113  65.7969 0005638 310.2596  49.7930 15.73168876 18263,6727.984,91.535,353.642,346.056,0.0
53935.0,STARLINK-5000,PAYLOAD,2023-01-13 20:19:46,15.73172656,0.0005405,53.211000000000006,64.2252,310.0103,50.0442,-1.0278e-05,-2.069e-05,0.0,0 STARLINK-5000,1 53935U 22119BB  23013.84706333 -.00002069  00000-0 -10278-4 0  9994,2 53935  53.2110  64.2252 0005405 310.0103  50.0442 15.73172656 18313,6727.973000000001,91.535,353.475,346.202,0.0
53935.0,STARLINK-5000,PAYLOAD,2023-01-14 03:57:10,15.73195028,0.0005492,53.2109,62.6514,312.8739,47.182,0.0001048,0.00014115,0.0,0 STARLINK-5000,1 53935U 22119BB  23014.16470655  .00014115  00000-0  10480-3 0  9992,2 53935  53.2109  62.6514 0005492 312.8739  47.1820 15.73195028 17937,6727.909000000001,91.533,353.469,346.079,0.0
53935.0,STARLINK-5000,PAYLOAD,2023-01-14 10:03:05,15.73228669,0.0005304999999999,53.2111,61.3941,311.6652,48.3913,0.00024479,0.00033936,0.0,0 STARLINK-5000,1 53935U 22119BB  23014.41881483  .00033936  00000-0  24479-3 0  9990,2 53935  53.2111  61.3941 0005305 311.6652  48.3913 15.73228669 17972,6727.813,91.532,353.24800000000005,346.10900000000004,0.0
53935.0,STARLINK-5000,PAYLOAD,2023-01-15 02:49:23,15.73205634,0.0005241,53.211000000000006,57.9366,314.3698,45.6893,4.7768e-05,6.089e-05,0.0,0 STARLINK-5000,1 53935U 22119BB  23015.11762916  .00006089  00000-0  47768-4 0  9993,2 53935  53.2110  57.9366 0005241 314.3698  45.6893 15.73205634 18089,6727.879,91.533,353.27,346.218,0.0
53935.0,STARLINK-5000,PAYLOAD,2023-01-15 08:55:18,15.73227797,0.0004681,53.2113,56.6784,315.2455,44.8187,0.00010599,0.00014301,0.0,0 STARLINK-5000,1 53935U 22119BB  23015.37173690  .00014301  00000-0  10599-3 0  9993,2 53935  53.2113  56.6784 0004681 315.2455  44.8187 15.73227797 18126,6727.816,91.532,352.83,346.532,0.0
53935.0,STARLINK-5000,PAYLOAD,2023-01-15 11:58:15,15.73228356,0.0004841999999999,53.2114,56.0493,312.8577,47.2036,0.00010018,0.00013482,0.0,0 STARLINK-5000,1 53935U 22119BB  23015.49879107  .00013482  00000-0  10018-3 0  9997,2 53935  53.2114  56.0493 0004842 312.8577  47.2036 15.73228356 18576,6727.814,91.532,352.93699999999995,346.422,0.0
53935.0,STARLINK-5000,PAYLOAD,2023-01-15 19:35:40,15.73179317,0.0003355,53.2111,54.4769,332.1097,27.9743,-3.3656e-05,-5.341e-05,0.0,0 STARLINK-5000,1 53935U 22119BB  23015.81644437 -.00005341  00000-0 -33656-4 0  9990,2 53935  53.2111  54.4769 0003355 332.1097  27.9743 15.73179317 18191,6727.954000000001,91.534,352.076,347.56199999999995,0.0
53935.0,STARLINK-5000,PAYLOAD,2023-01-16 10:50:28,15.73219299,0.0004301,53.2115,51.3333,314.6319,45.435,0.00016132,0.00022105,0.0,0 STARLINK-5000,1 53935U 22119BB  23016.45172229  .00022105  00000-0  16132-3 0  9990,2 53935  53.2115  51.3333 0004301 314.6319  45.4350 15.73219299 18296,6727.84,91.532,352.599,346.81199999999995,0.0
53935.0,STARLINK-5000,PAYLOAD,2023-01-17 02:05:17,15.73209558,0.0004031,53.212,48.1891,305.2345,54.8298,9.5476e-05,0.00012806,0.0,0 STARLINK-5000,1 53935U 22119BB  23017.08700461  .00012806  00000-0  95476-4 0  9991,2 53935  53.2120  48.1891 0004031 305.2345  54.8298 15.73209558 18393,6727.868,91.533,352.445,347.021,0.0
53935.0,STARLINK-5000,PAYLOAD,2023-01-17 11:14:20,15.72759201,0.0002438,53.2127,46.3036,355.7697,4.3302,-0.0012975,-0.00175664,0.0,0 STARLINK-5000,1 53935U 22119BB  23017.46829578 -.00175664  00000-0 -12975-2 0  9999,2 53935  53.2127  46.3036 0002438 355.7697   4.3302 15.72759201 18457,6729.151999999999,91.559,352.658,349.37699999999995,0.0
53935.0,STARLINK-5000,PAYLOAD,2023-01-17 12:45:56,15.72548262,3.18e-05,53.2106,45.9886,289.7001,70.3984,-0.0022624,-0.00298636,0.0,0 STARLINK-5000,1 53935U 22119BB  23017.53190033 -.00298636  00000-0 -22624-2 0  9991,2 53935  53.2106  45.9886 0000318 289.7001  70.3984 15.72548262 18892,6729.754,91.571,351.833,351.405,0.0
53935.0,STARLINK-5000,PAYLOAD,2023-01-17 18:52:09,15.72310111,0.0002181,53.2124,44.7331,7.3055,352.7996,-0.0020407,-0.00267772,0.0,0 STARLINK-5000,1 53935U 22119BB  23017.78622286 -.00267772  00000-0 -20407-2 0  9992,2 53935  53.2124  44.7331 0002181   7.3055 352.7996 15.72310111 18505,6730.433000000001,91.585,353.766,350.831,0.0
53935.0,STARLINK-5000,PAYLOAD,2023-01-18 06:00:00,15.707451999999998,0.0001324,53.2109,42.4354,70.14,34.9005,-0.008095,-0.00932399,0.0,0 STARLINK-5000,1 53935U 22119BB  23018.25001157 -.00932399  00000-0 -80950-2 0  9996,2 53935  53.2109  42.4354 0001324  70.1400  34.9005 15.70745200 18585,6734.903,91.676,357.66,355.876,0.0
53935.0,STARLINK-5000,PAYLOAD,2023-01-18 14:00:01,15.70104432,0.0001431999999999,53.2105,40.7924,78.8988,111.7021,-0.0082612,-0.00926793,0.0,0 STARLINK-5000,1 53935U 22119BB  23018.58334491 -.00926793  00000-0 -82612-2 0  9990,2 53935  53.2105  40.7924 0001432  78.8988 111.7021 15.70104432  1301,6736.735,91.714,359.565,357.636,0.0
